{"fetched_at":"2026-07-07T07:58:31.243Z","source":"https://celestrak.org/NORAD/elements/gp.php?NAME=GHGSAT&FORMAT=JSON","constellation":"ghgsat","records":[{"OBJECT_NAME":"GHGSAT-C1","OBJECT_ID":"2020-061G","EPOCH":"2026-07-06T19:57:32.297184","CLASSIFICATION_TYPE":"U","MEAN_MOTION":15.72942811,"ECCENTRICITY":0.0000413,"INCLINATION":97.2088,"RA_OF_ASC_NODE":273.6212,"ARG_OF_PERICENTER":155.0944,"MEAN_ANOMALY":205.034,"EPHEMERIS_TYPE":0,"NORAD_CAT_ID":46278,"ELEMENT_SET_NO":999,"REV_AT_EPOCH":32656,"BSTAR":0.00025926,"MEAN_MOTION_DOT":0.00035142,"MEAN_MOTION_DDOT":0},{"OBJECT_NAME":"GHGSAT-C2","OBJECT_ID":"2021-006DA","EPOCH":"2026-07-06T16:03:44.825184","CLASSIFICATION_TYPE":"U","MEAN_MOTION":15.38038174,"ECCENTRICITY":0.0006898,"INCLINATION":97.2136,"RA_OF_ASC_NODE":234.6004,"ARG_OF_PERICENTER":98.2614,"MEAN_ANOMALY":261.9414,"EPHEMERIS_TYPE":0,"NORAD_CAT_ID":47509,"ELEMENT_SET_NO":999,"REV_AT_EPOCH":30284,"BSTAR":0.00014728,"MEAN_MOTION_DOT":0.00005435,"MEAN_MOTION_DDOT":0},{"OBJECT_NAME":"GHGSAT-C3","OBJECT_ID":"2022-057F","EPOCH":"2026-07-06T19:15:28.661184","CLASSIFICATION_TYPE":"U","MEAN_MOTION":15.34606504,"ECCENTRICITY":0.0006933,"INCLINATION":97.6624,"RA_OF_ASC_NODE":334.1991,"ARG_OF_PERICENTER":60.7321,"MEAN_ANOMALY":299.4613,"EPHEMERIS_TYPE":0,"NORAD_CAT_ID":52737,"ELEMENT_SET_NO":999,"REV_AT_EPOCH":22854,"BSTAR":0.0001631,"MEAN_MOTION_DOT":0.00005386,"MEAN_MOTION_DDOT":0},{"OBJECT_NAME":"GHGSAT-C5","OBJECT_ID":"2022-057N","EPOCH":"2026-07-06T20:11:57.422976","CLASSIFICATION_TYPE":"U","MEAN_MOTION":15.3458446,"ECCENTRICITY":0.000759,"INCLINATION":97.6711,"RA_OF_ASC_NODE":335.8367,"ARG_OF_PERICENTER":57.7228,"MEAN_ANOMALY":302.4749,"EPHEMERIS_TYPE":0,"NORAD_CAT_ID":52744,"ELEMENT_SET_NO":999,"REV_AT_EPOCH":22855,"BSTAR":0.00016426,"MEAN_MOTION_DOT":0.00005422,"MEAN_MOTION_DDOT":0},{"OBJECT_NAME":"GHGSAT-C4","OBJECT_ID":"2022-057Q","EPOCH":"2026-07-06T21:19:07.031712","CLASSIFICATION_TYPE":"U","MEAN_MOTION":15.34595439,"ECCENTRICITY":0.0006903,"INCLINATION":97.655,"RA_OF_ASC_NODE":333.0996,"ARG_OF_PERICENTER":46.3558,"MEAN_ANOMALY":313.8256,"EPHEMERIS_TYPE":0,"NORAD_CAT_ID":52746,"ELEMENT_SET_NO":999,"REV_AT_EPOCH":22856,"BSTAR":0.00016691,"MEAN_MOTION_DOT":0.00005512,"MEAN_MOTION_DDOT":0},{"OBJECT_NAME":"GHGSAT-C8","OBJECT_ID":"2023-054J","EPOCH":"2026-07-06T19:26:22.761888","CLASSIFICATION_TYPE":"U","MEAN_MOTION":15.53583178,"ECCENTRICITY":0.0004217,"INCLINATION":97.296,"RA_OF_ASC_NODE":97.3729,"ARG_OF_PERICENTER":30.9935,"MEAN_ANOMALY":329.1567,"EPHEMERIS_TYPE":0,"NORAD_CAT_ID":56186,"ELEMENT_SET_NO":999,"REV_AT_EPOCH":18148,"BSTAR":0.00021391,"MEAN_MOTION_DOT":0.00013531,"MEAN_MOTION_DDOT":0},{"OBJECT_NAME":"GHGSAT-C6","OBJECT_ID":"2023-054AC","EPOCH":"2026-07-06T20:10:18.119136","CLASSIFICATION_TYPE":"U","MEAN_MOTION":15.53562999,"ECCENTRICITY":0.0004407,"INCLINATION":97.3025,"RA_OF_ASC_NODE":98.0999,"ARG_OF_PERICENTER":350.157,"MEAN_ANOMALY":9.9596,"EPHEMERIS_TYPE":0,"NORAD_CAT_ID":56204,"ELEMENT_SET_NO":999,"REV_AT_EPOCH":18150,"BSTAR":0.00021609,"MEAN_MOTION_DOT":0.00013661,"MEAN_MOTION_DDOT":0},{"OBJECT_NAME":"GHGSAT-C7","OBJECT_ID":"2023-054AH","EPOCH":"2026-07-06T19:42:57.161952","CLASSIFICATION_TYPE":"U","MEAN_MOTION":15.50318397,"ECCENTRICITY":0.000587,"INCLINATION":97.2978,"RA_OF_ASC_NODE":96.4456,"ARG_OF_PERICENTER":341.731,"MEAN_ANOMALY":18.373,"EPHEMERIS_TYPE":0,"NORAD_CAT_ID":56209,"ELEMENT_SET_NO":999,"REV_AT_EPOCH":18143,"BSTAR":0.00016203,"MEAN_MOTION_DOT":0.00009092,"MEAN_MOTION_DDOT":0},{"OBJECT_NAME":"GHGSAT-C12","OBJECT_ID":"2025-135B","EPOCH":"2026-07-06T14:21:30.757824","CLASSIFICATION_TYPE":"U","MEAN_MOTION":15.20407683,"ECCENTRICITY":0.0006473,"INCLINATION":97.4764,"RA_OF_ASC_NODE":302.2357,"ARG_OF_PERICENTER":103.9029,"MEAN_ANOMALY":256.2927,"EPHEMERIS_TYPE":0,"NORAD_CAT_ID":64529,"ELEMENT_SET_NO":999,"REV_AT_EPOCH":5777,"BSTAR":0.00015513,"MEAN_MOTION_DOT":0.00003313,"MEAN_MOTION_DDOT":0},{"OBJECT_NAME":"GHGSAT-C13","OBJECT_ID":"2025-135W","EPOCH":"2026-07-06T14:11:31.939296","CLASSIFICATION_TYPE":"U","MEAN_MOTION":15.21339615,"ECCENTRICITY":0.0002236,"INCLINATION":97.4793,"RA_OF_ASC_NODE":302.8284,"ARG_OF_PERICENTER":77.0603,"MEAN_ANOMALY":283.0883,"EPHEMERIS_TYPE":0,"NORAD_CAT_ID":64548,"ELEMENT_SET_NO":999,"REV_AT_EPOCH":5780,"BSTAR":0.0002371,"MEAN_MOTION_DOT":0.0000524,"MEAN_MOTION_DDOT":0}]}
