GHGSAT-C1               
1 46278U 20061G   26187.83162381  .00035142  00000+0  25926-3 0  9993
2 46278  97.2088 273.6212 0000413 155.0944 205.0340 15.72942811326568
GHGSAT-C2               
1 47509U 21006DA  26187.66926881  .00005435  00000+0  14728-3 0  9995
2 47509  97.2136 234.6004 0006898  98.2614 261.9414 15.38038174302849
GHGSAT-C3               
1 52737U 22057F   26187.80241506  .00005386  00000+0  16310-3 0  9995
2 52737  97.6624 334.1991 0006933  60.7321 299.4613 15.34606504228549
GHGSAT-C5               
1 52744U 22057N   26187.84163684  .00005422  00000+0  16426-3 0  9996
2 52744  97.6711 335.8367 0007590  57.7228 302.4749 15.34584460228553
GHGSAT-C4               
1 52746U 22057Q   26187.88827583  .00005512  00000+0  16691-3 0  9991
2 52746  97.6550 333.0996 0006903  46.3558 313.8256 15.34595439228569
GHGSAT-C8               
1 56186U 23054J   26187.80998567  .00013531  00000+0  21391-3 0  9997
2 56186  97.2960  97.3729 0004217  30.9935 329.1567 15.53583178181482
GHGSAT-C6               
1 56204U 23054AC  26187.84048749  .00013661  00000+0  21609-3 0  9996
2 56204  97.3025  98.0999 0004407 350.1570   9.9596 15.53562999181502
GHGSAT-C7               
1 56209U 23054AH  26187.82149493  .00009092  00000+0  16203-3 0  9994
2 56209  97.2978  96.4456 0005870 341.7310  18.3730 15.50318397181430
GHGSAT-C12              
1 64529U 25135B   26187.59827266  .00003313  00000+0  15513-3 0  9998
2 64529  97.4764 302.2357 0006473 103.9029 256.2927 15.20407683 57776
GHGSAT-C13              
1 64548U 25135W   26187.59134189  .00005240  00000+0  23710-3 0  9993
2 64548  97.4793 302.8284 0002236  77.0603 283.0883 15.21339615 57809
